[{"OBJECT_NAME":"STARLINK-34301","OBJECT_ID":"2025-126F","EPOCH":"2026-03-09T22:58:14.561472","MEAN_MOTION":14.98349125,"ECCENTRICITY":0.00029288,"INCLINATION":70.0029,"RA_OF_ASC_NODE":33.715,"ARG_OF_PERICENTER":272.8168,"MEAN_ANOMALY":87.2656,"EPHEMERIS_TYPE":0,"CLASSIFICATION_TYPE":"U","NORAD_CAT_ID":64349,"ELEMENT_SET_NO":999,"REV_AT_EPOCH":4072,"BSTAR":0.0008648725,"MEAN_MOTION_DOT":0.00010247,"MEAN_MOTION_DDOT":0},{"OBJECT_NAME":"METHANESAT","OBJECT_ID":"2024-043D","EPOCH":"2026-03-09T22:12:33.121440","MEAN_MOTION":14.97588653,"ECCENTRICITY":0.00100526,"INCLINATION":97.8288,"RA_OF_ASC_NODE":199.6058,"ARG_OF_PERICENTER":350.2517,"MEAN_ANOMALY":9.8508,"EPHEMERIS_TYPE":0,"CLASSIFICATION_TYPE":"U","NORAD_CAT_ID":59101,"ELEMENT_SET_NO":999,"REV_AT_EPOCH":10979,"BSTAR":0.00032562202,"MEAN_MOTION_DOT":3.748e-5,"MEAN_MOTION_DDOT":0}]
